[
  {
    "OBJECT_NAME": "STARLINK-30464",
    "OBJECT_ID": "23146T",
    "EPOCH": "2025-11-11T04:22:28.313760",
    "MEAN_MOTION": 15.02550051,
    "ECCENTRICITY": 0.0001099,
    "INCLINATION": 43.0039,
    "RA_OF_ASC_NODE": 236.9385,
    "ARG_OF_PERICENTER": 263.4099,
    "MEAN_ANOMALY": 96.6618,
    "EPHEMERIS_TYPE": 0,
    "CLASSIFICATION_TYPE": "U",
    "NORAD_CAT_ID": 57908,
    "ELEMENT_SET_NO": 999,
    "REV_AT_EPOCH": 11818,
    "BSTAR": 2.8397000000000003e-05,
    "MEAN_MOTION_DOT": 1.8e-06,
    "MEAN_MOTION_DDOT": 0.0,
    "TLE_LINE1": "1 57908U 23146T   25315.18227215  .00000180  00000+0  28397-4 0  9990",
    "TLE_LINE2": "2 57908  43.0039 236.9385 0001099 263.4099  96.6618 15.02550051118187",
    "COMMENT": "Grouped by shell and plane from TLE"
  },
  {
    "OBJECT_NAME": "STARLINK-30463",
    "OBJECT_ID": "23146U",
    "EPOCH": "2025-11-11T02:51:32.903712",
    "MEAN_MOTION": 15.02531088,
    "ECCENTRICITY": 0.0001062,
    "INCLINATION": 43.0027,
    "RA_OF_ASC_NODE": 237.327,
    "ARG_OF_PERICENTER": 277.7518,
    "MEAN_ANOMALY": 82.3203,
    "EPHEMERIS_TYPE": 0,
    "CLASSIFICATION_TYPE": "U",
    "NORAD_CAT_ID": 57909,
    "ELEMENT_SET_NO": 999,
    "REV_AT_EPOCH": 11817,
    "BSTAR": 7.553200000000001e-06,
    "MEAN_MOTION_DOT": -1.02e-06,
    "MEAN_MOTION_DDOT": 0.0,
    "TLE_LINE1": "1 57909U 23146U   25315.11913083 -.00000102  00000+0  75532-5 0  9998",
    "TLE_LINE2": "2 57909  43.0027 237.3270 0001062 277.7518  82.3203 15.02531088118177",
    "COMMENT": "Grouped by shell and plane from TLE"
  },
  {
    "OBJECT_NAME": "STARLINK-30453",
    "OBJECT_ID": "23146V",
    "EPOCH": "2025-11-11T04:17:40.247520",
    "MEAN_MOTION": 15.02537044,
    "ECCENTRICITY": 0.0001333,
    "INCLINATION": 43.004,
    "RA_OF_ASC_NODE": 236.9123,
    "ARG_OF_PERICENTER": 267.0179,
    "MEAN_ANOMALY": 93.0511,
    "EPHEMERIS_TYPE": 0,
    "CLASSIFICATION_TYPE": "U",
    "NORAD_CAT_ID": 57910,
    "ELEMENT_SET_NO": 999,
    "REV_AT_EPOCH": 11818,
    "BSTAR": 5.630500000000001e-05,
    "MEAN_MOTION_DOT": 5.57e-06,
    "MEAN_MOTION_DDOT": 0.0,
    "TLE_LINE1": "1 57910U 23146V   25315.17893805  .00000557  00000+0  56305-4 0  9994",
    "TLE_LINE2": "2 57910  43.0040 236.9123 0001333 267.0179  93.0511 15.02537044118182",
    "COMMENT": "Grouped by shell and plane from TLE"
  },
  {
    "OBJECT_NAME": "STARLINK-30478",
    "OBJECT_ID": "23146W",
    "EPOCH": "2025-11-11T03:56:53.999232",
    "MEAN_MOTION": 15.02526429,
    "ECCENTRICITY": 0.0001704,
    "INCLINATION": 43.0066,
    "RA_OF_ASC_NODE": 236.7973,
    "ARG_OF_PERICENTER": 261.7828,
    "MEAN_ANOMALY": 98.2822,
    "EPHEMERIS_TYPE": 0,
    "CLASSIFICATION_TYPE": "U",
    "NORAD_CAT_ID": 57911,
    "ELEMENT_SET_NO": 999,
    "REV_AT_EPOCH": 11924,
    "BSTAR": 0.00018621,
    "MEAN_MOTION_DOT": 2.312e-05,
    "MEAN_MOTION_DDOT": 0.0,
    "TLE_LINE1": "1 57911U 23146W   25315.16451388  .00002312  00000+0  18621-3 0  9999",
    "TLE_LINE2": "2 57911  43.0066 236.7973 0001704 261.7828  98.2822 15.02526429119241",
    "COMMENT": "Grouped by shell and plane from TLE"
  },
  {
    "OBJECT_NAME": "STARLINK-30477",
    "OBJECT_ID": "23146X",
    "EPOCH": "2025-11-11T04:12:52.732512",
    "MEAN_MOTION": 15.02537078,
    "ECCENTRICITY": 0.0001248,
    "INCLINATION": 43.0051,
    "RA_OF_ASC_NODE": 236.8899,
    "ARG_OF_PERICENTER": 260.126,
    "MEAN_ANOMALY": 99.9441,
    "EPHEMERIS_TYPE": 0,
    "CLASSIFICATION_TYPE": "U",
    "NORAD_CAT_ID": 57912,
    "ELEMENT_SET_NO": 999,
    "REV_AT_EPOCH": 11924,
    "BSTAR": 5.8022e-05,
    "MEAN_MOTION_DOT": 5.8e-06,
    "MEAN_MOTION_DDOT": 0.0,
    "TLE_LINE1": "1 57912U 23146X   25315.17561033  .00000580  00000+0  58022-4 0  9995",
    "TLE_LINE2": "2 57912  43.0051 236.8899 0001248 260.1260  99.9441 15.02537078119247",
    "COMMENT": "Grouped by shell and plane from TLE"
  }
]